{
  "norad_id": 55931,
  "name": "STARLINK-5897",
  "history": [
    {
      "epoch": "2026-03-28T19:07:40.106208Z",
      "apogee_km": 574.0484912102957,
      "perigee_km": 570.019199164507,
      "latitude_deg": 5.8249036472831565e-06,
      "longitude_deg": 142.9697058908629,
      "height_km": 574.5052386112454,
      "semi_major_axis_km": 6950.170845187401,
      "eccentricity": 0.00028987,
      "inclination_deg": 69.9994,
      "raan_deg": 256.0991,
      "arg_perigee_deg": 268.7466,
      "mean_anomaly_deg": 91.3361,
      "mean_motion_rev_day": 14.98337129
    },
    {
      "epoch": "2026-03-30T04:46:29.180640Z",
      "apogee_km": 574.0968929085047,
      "perigee_km": 570.0574284383201,
      "latitude_deg": 3.477908510697875e-05,
      "longitude_deg": -6.6518915251088035,
      "height_km": 574.6255876740596,
      "semi_major_axis_km": 6950.214160673412,
      "eccentricity": 0.0002906,
      "inclination_deg": 69.9993,
      "raan_deg": 252.5638,
      "arg_perigee_deg": 266.5622,
      "mean_anomaly_deg": 93.5205,
      "mean_motion_rev_day": 14.98323122
    },
    {
      "epoch": "2026-03-30T04:46:29.181504Z",
      "apogee_km": 574.0966148999378,
      "perigee_km": 570.0577064468871,
      "latitude_deg": 3.0485997734475856e-05,
      "longitude_deg": -6.651896689061227,
      "height_km": 574.625570997988,
      "semi_major_axis_km": 6950.214160673412,
      "eccentricity": 0.00029056,
      "inclination_deg": 69.9993,
      "raan_deg": 252.5638,
      "arg_perigee_deg": 266.5622,
      "mean_anomaly_deg": 93.5205,
      "mean_motion_rev_day": 14.98323122
    },
    {
      "epoch": "2026-03-30T12:47:09.066048Z",
      "apogee_km": 574.1301721655764,
      "perigee_km": 569.9389407101808,
      "latitude_deg": 4.717621878670557e-05,
      "longitude_deg": -127.98877918656936,
      "height_km": 574.4725051162397,
      "semi_major_axis_km": 6950.171556437878,
      "eccentricity": 0.00030152,
      "inclination_deg": 69.9988,
      "raan_deg": 251.7221,
      "arg_perigee_deg": 269.7113,
      "mean_anomaly_deg": 90.3701,
      "mean_motion_rev_day": 14.98336899
    },
    {
      "epoch": "2026-03-30T20:47:49.315200Z",
      "apogee_km": 574.1767845797403,
      "perigee_km": 569.8965896162772,
      "latitude_deg": -1.5861468225580628e-05,
      "longitude_deg": 110.67298609421233,
      "height_km": 574.4466484622772,
      "semi_major_axis_km": 6950.1736870980085,
      "eccentricity": 0.00030792,
      "inclination_deg": 69.9988,
      "raan_deg": 250.8806,
      "arg_perigee_deg": 270.4683,
      "mean_anomaly_deg": 89.6123,
      "mean_motion_rev_day": 14.9833621
    },
    {
      "epoch": "2026-03-31T20:49:49.891584Z",
      "apogee_km": 574.1935185091934,
      "perigee_km": 569.8899678314228,
      "latitude_deg": -2.965142814023116e-05,
      "longitude_deg": 106.65876037179046,
      "height_km": 574.4213897747453,
      "semi_major_axis_km": 6950.178743170308,
      "eccentricity": 0.0003096,
      "inclination_deg": 69.9992,
      "raan_deg": 248.3558,
      "arg_perigee_deg": 271.2741,
      "mean_anomaly_deg": 88.8063,
      "mean_motion_rev_day": 14.98334575
    },
    {
      "epoch": "2026-04-01T09:38:54.618720Z",
      "apogee_km": 574.1678461878964,
      "perigee_km": 569.9462983084131,
      "latitude_deg": -2.079694812320215e-05,
      "longitude_deg": -87.48384786509781,
      "height_km": 574.4058885631551,
      "semi_major_axis_km": 6950.194072248155,
      "eccentricity": 0.0003037,
      "inclination_deg": 69.9994,
      "raan_deg": 247.0093,
      "arg_perigee_deg": 272.1346,
      "mean_anomaly_deg": 87.9465,
      "mean_motion_rev_day": 14.98329618
    },
    {
      "epoch": "2026-04-02T16:05:28.125024Z",
      "apogee_km": 574.1401970765019,
      "perigee_km": 569.989675484193,
      "latitude_deg": 8.29459758810813e-06,
      "longitude_deg": 171.42851944542224,
      "height_km": 574.5291845390045,
      "semi_major_axis_km": 6950.201936280347,
      "eccentricity": 0.00029859,
      "inclination_deg": 69.9992,
      "raan_deg": 243.8115,
      "arg_perigee_deg": 268.9822,
      "mean_anomaly_deg": 91.0995,
      "mean_motion_rev_day": 14.98327075
    },
    {
      "epoch": "2026-04-02T20:53:51.666432Z",
      "apogee_km": 574.5962681415813,
      "perigee_km": 569.5006701630182,
      "latitude_deg": 2.6267966076372404e-05,
      "longitude_deg": 98.62713933658914,
      "height_km": 574.6270415448685,
      "semi_major_axis_km": 6950.185469152299,
      "eccentricity": 0.00036658,
      "inclination_deg": 70.0011,
      "raan_deg": 243.3056,
      "arg_perigee_deg": 266.6159,
      "mean_anomaly_deg": 93.4581,
      "mean_motion_rev_day": 14.983324
    },
    {
      "epoch": "2026-04-03T19:19:45.003072Z",
      "apogee_km": 574.1269854298434,
      "perigee_km": 569.9874497538449,
      "latitude_deg": 1.6180821793075773e-05,
      "longitude_deg": 118.8784714676983,
      "height_km": 574.5223655742521,
      "semi_major_axis_km": 6950.194217591844,
      "eccentricity": 0.0002978,
      "inclination_deg": 70.0002,
      "raan_deg": 240.9504,
      "arg_perigee_deg": 268.9564,
      "mean_anomaly_deg": 91.1254,
      "mean_motion_rev_day": 14.98329571
    }
  ]
}